IRIDIUM 36 [-]          
1 24967U 97056C   23364.59971990  .00000504  00000+0  16507-3 0  9992
2 24967  86.3960  37.4536 0002053  90.1034 270.0398 14.36565291375441
IRIDIUM 39 [-]          
1 25042U 97069D   23364.60780106  .00000896  00000+0  23765-3 0  9998
2 25042  86.3910  80.1221 0016322 292.3015  67.6457 14.47595722371587
IRIDIUM 42 [-]          
1 25077U 97077A   23364.37382405  .00000658  00000+0  22286-3 0  9992
2 25077  86.3967 103.5452 0002673  87.5391 272.6111 14.35330431364452
IRIDIUM 44 [-]          
1 25078U 97077B   23364.29850890  .00000695  00000+0  21823-3 0  9999
2 25078  86.3953  86.9314 0002372  43.2147 316.9237 14.39141587366744
IRIDIUM 24 [-]          
1 25105U 97082B   23364.38740965  .00000915  00000+0  27887-3 0  9998
2 25105  86.3914 306.7746 0013238  50.3747 309.8618 14.40907792366173
IRIDIUM 51 [-]          
1 25262U 98018A   23364.37660132  .00012500  00000+0  65558-3 0  9998
2 25262  86.3920 311.9618 0162827  86.6084 275.3761 15.04771698365827
